[{"OBJECT_NAME":"STARLINK-5685","OBJECT_ID":"2023-015AE","EPOCH":"2026-03-09T01:30:50.613120","MEAN_MOTION":15.02535586,"ECCENTRICITY":0.00012798,"INCLINATION":43.0051,"RA_OF_ASC_NODE":316.9093,"ARG_OF_PERICENTER":266.03,"MEAN_ANOMALY":94.0396,"EPHEMERIS_TYPE":0,"CLASSIFICATION_TYPE":"U","NORAD_CAT_ID":55477,"ELEMENT_SET_NO":999,"REV_AT_EPOCH":17080,"BSTAR":1.9378457e-5,"MEAN_MOTION_DOT":5.8e-7,"MEAN_MOTION_DDOT":0},{"OBJECT_NAME":"OPS 6553","OBJECT_ID":"1982-041C","EPOCH":"2026-03-09T22:03:24.080544","MEAN_MOTION":15.05429153,"ECCENTRICITY":0.00081122,"INCLINATION":95.9935,"RA_OF_ASC_NODE":204.8515,"ARG_OF_PERICENTER":276.7874,"MEAN_ANOMALY":83.2434,"EPHEMERIS_TYPE":0,"CLASSIFICATION_TYPE":"U","NORAD_CAT_ID":13172,"ELEMENT_SET_NO":999,"REV_AT_EPOCH":10072,"BSTAR":0.00048705,"MEAN_MOTION_DOT":6.956e-5,"MEAN_MOTION_DDOT":0}]
